{
  "type": "FeatureCollection",
  "features": [
    {
      "type": "Feature",
      "properties": {
        "norad_id": 48859,
        "name": "GPS BIII-5  (PRN 11)",
        "group": "gps-ops",
        "lat": 1.1807694423896389,
        "lon": 159.04712562147796,
        "alt_km": 20145.618725139833,
        "timestamp": "2025-12-14T18:52:55.762388+00:00",
        "meta_object_name": "GPS BIII-5  (PRN 11)",
        "meta_object_id": "2021-054A",
        "meta_epoch": "2025-12-08T04:14:32.423424",
        "meta_mean_motion": 2.00553627,
        "meta_eccentricity": 0.0024678,
        "meta_inclination": 55.2581,
        "meta_ra_of_asc_node": 340.1367,
        "meta_arg_of_pericenter": 233.3994,
        "meta_mean_anomaly": 212.8593,
        "meta_ephemeris_type": 0,
        "meta_classification_type": "U",
        "meta_norad_cat_id": 48859,
        "meta_element_set_no": 999,
        "meta_rev_at_epoch": 3292,
        "meta_bstar": 0,
        "meta_mean_motion_dot": -8.6e-07,
        "meta_mean_motion_ddot": 0,
        "tle_line1": "1 48859U 21054A   25342.17676416 -.00000086  00000+0  00000+0 0  9993",
        "tle_line2": "2 48859  55.2581 340.1367 0024678 233.3994 212.8593  2.00553627 32922"
      },
      "geometry": {
        "type": "Point",
        "coordinates": [
          159.04712562147796,
          1.1807694423896389
        ]
      }
    },
    {
      "type": "Feature",
      "properties": {
        "norad_id": 55268,
        "name": "GPS BIII-6  (PRN 28)",
        "group": "gps-ops",
        "lat": -32.681811625256124,
        "lon": 2.3666346479245295,
        "alt_km": 20194.114957969632,
        "timestamp": "2025-12-14T18:52:55.762399+00:00",
        "meta_object_name": "GPS BIII-6  (PRN 28)",
        "meta_object_id": "2023-009A",
        "meta_epoch": "2025-12-13T12:37:03.021024",
        "meta_mean_motion": 2.00555696,
        "meta_eccentricity": 0.00037118,
        "meta_inclination": 55.1051,
        "meta_ra_of_asc_node": 155.8142,
        "meta_arg_of_pericenter": 357.4368,
        "meta_mean_anomaly": 33.2544,
        "meta_ephemeris_type": 0,
        "meta_classification_type": "U",
        "meta_norad_cat_id": 55268,
        "meta_element_set_no": 999,
        "meta_rev_at_epoch": 2152,
        "meta_bstar": 0,
        "meta_mean_motion_dot": 1e-06,
        "meta_mean_motion_ddot": 0,
        "tle_line1": "1 55268U 23009A   25347.52572941  .00000100  00000+0  00000+0 0  9995",
        "tle_line2": "2 55268  55.1051 155.8142 0003711 357.4368  33.2544  2.00555696 21528"
      },
      "geometry": {
        "type": "Point",
        "coordinates": [
          2.3666346479245295,
          -32.681811625256124
        ]
      }
    },
    {
      "type": "Feature",
      "properties": {
        "norad_id": 62339,
        "name": "GPS BIII-7  (PRN 01)",
        "group": "gps-ops",
        "lat": -45.93411007002302,
        "lon": -64.89222689113363,
        "alt_km": 20164.514077361902,
        "timestamp": "2025-12-14T18:52:55.762411+00:00",
        "meta_object_name": "GPS BIII-7  (PRN 01)",
        "meta_object_id": "2024-242A",
        "meta_epoch": "2025-12-13T08:55:39.244800",
        "meta_mean_motion": 2.00567973,
        "meta_eccentricity": 0.00122972,
        "meta_inclination": 54.9234,
        "meta_ra_of_asc_node": 341.714,
        "meta_arg_of_pericenter": 344.9239,
        "meta_mean_anomaly": 12.1981,
        "meta_ephemeris_type": 0,
        "meta_classification_type": "U",
        "meta_norad_cat_id": 62339,
        "meta_element_set_no": 999,
        "meta_rev_at_epoch": 752,
        "meta_bstar": 0,
        "meta_mean_motion_dot": -9.1e-07,
        "meta_mean_motion_ddot": 0,
        "tle_line1": "1 62339U 24242A   25347.37198200 -.00000091  00000+0  00000+0 0  9997",
        "tle_line2": "2 62339  54.9234 341.7140 0012297 344.9239  12.1981  2.00567973  7522"
      },
      "geometry": {
        "type": "Point",
        "coordinates": [
          -64.89222689113363,
          -45.93411007002302
        ]
      }
    },
    {
      "type": "Feature",
      "properties": {
        "norad_id": 64202,
        "name": "GPS BIII-8  (PRN 21)",
        "group": "gps-ops",
        "lat": 40.211528295304774,
        "lon": -177.5447478625231,
        "alt_km": 20192.63882456624,
        "timestamp": "2025-12-14T18:52:55.762423+00:00",
        "meta_object_name": "GPS BIII-8  (PRN 21)",
        "meta_object_id": "2025-116A",
        "meta_epoch": "2025-12-13T02:48:10.465056",
        "meta_mean_motion": 2.00558313,
        "meta_eccentricity": 0.00055988,
        "meta_inclination": 55.106,
        "meta_ra_of_asc_node": 38.6253,
        "meta_arg_of_pericenter": 307.9903,
        "meta_mean_anomaly": 54.3389,
        "meta_ephemeris_type": 0,
        "meta_classification_type": "U",
        "meta_norad_cat_id": 64202,
        "meta_element_set_no": 999,
        "meta_rev_at_epoch": 414,
        "meta_bstar": 0,
        "meta_mean_motion_dot": -9.8e-07,
        "meta_mean_motion_ddot": 0,
        "tle_line1": "1 64202U 25116A   25347.11678779 -.00000098  00000+0  00000+0 0  9992",
        "tle_line2": "2 64202  55.1060  38.6253 0005598 307.9903  54.3389  2.00558313  4146"
      },
      "geometry": {
        "type": "Point",
        "coordinates": [
          -177.5447478625231,
          40.211528295304774
        ]
      }
    }
  ]
}